{
  "type": "FeatureCollection",
  "features": [
    {
      "type": "Feature",
      "properties": {
        "norad_id": 32275,
        "name": "COSMOS 2433 (720)",
        "group": "glo-ops",
        "lat": -45.81143989018728,
        "lon": -65.35531752657224,
        "alt_km": 19127.14792672011,
        "timestamp": "2025-12-07T20:38:14.324908+00:00",
        "meta_object_name": "COSMOS 2433 (720)",
        "meta_object_id": "2007-052A",
        "meta_epoch": "2025-12-06T23:44:11.537952",
        "meta_mean_motion": 2.13103921,
        "meta_eccentricity": 0.00054556,
        "meta_inclination": 65.6864,
        "meta_ra_of_asc_node": 322.3989,
        "meta_arg_of_pericenter": 253.5069,
        "meta_mean_anomaly": 106.429,
        "meta_ephemeris_type": 0,
        "meta_classification_type": "U",
        "meta_norad_cat_id": 32275,
        "meta_element_set_no": 999,
        "meta_rev_at_epoch": 14096,
        "meta_bstar": 0,
        "meta_mean_motion_dot": -5e-07,
        "meta_mean_motion_ddot": 0,
        "tle_line1": "1 32275U 07052A   25340.98902243 -.00000050  00000+0  00000+0 0  9998",
        "tle_line2": "2 32275  65.6864 322.3989 0005455 253.5069 106.4290  2.13103921140965"
      },
      "geometry": {
        "type": "Point",
        "coordinates": [
          -65.35531752657224,
          -45.81143989018728
        ]
      }
    },
    {
      "type": "Feature",
      "properties": {
        "norad_id": 32276,
        "name": "COSMOS 2432 (719)",
        "group": "glo-ops",
        "lat": -60.33194043379878,
        "lon": -165.0527415140816,
        "alt_km": 19121.64536414106,
        "timestamp": "2025-12-07T20:38:14.324931+00:00",
        "meta_object_name": "COSMOS 2432 (719)",
        "meta_object_id": "2007-052B",
        "meta_epoch": "2025-12-07T02:45:37.162080",
        "meta_mean_motion": 2.13103072,
        "meta_eccentricity": 0.00112789,
        "meta_inclination": 65.7022,
        "meta_ra_of_asc_node": 322.5187,
        "meta_arg_of_pericenter": 312.1761,
        "meta_mean_anomaly": 88.8989,
        "meta_ephemeris_type": 0,
        "meta_classification_type": "U",
        "meta_norad_cat_id": 32276,
        "meta_element_set_no": 999,
        "meta_rev_at_epoch": 14099,
        "meta_bstar": 0,
        "meta_mean_motion_dot": -5e-07,
        "meta_mean_motion_ddot": 0,
        "tle_line1": "1 32276U 07052B   25341.11501345 -.00000050  00000+0  00000+0 0  9993",
        "tle_line2": "2 32276  65.7022 322.5187 0011278 312.1761  88.8989  2.13103072140994"
      },
      "geometry": {
        "type": "Point",
        "coordinates": [
          -165.0527415140816,
          -60.33194043379878
        ]
      }
    },
    {
      "type": "Feature",
      "properties": {
        "norad_id": 32393,
        "name": "COSMOS 2434 (721)",
        "group": "glo-ops",
        "lat": -16.796618473419525,
        "lon": 26.72581823830904,
        "alt_km": 19139.525937413087,
        "timestamp": "2025-12-07T20:38:14.324946+00:00",
        "meta_object_name": "COSMOS 2434 (721)",
        "meta_object_id": "2007-065A",
        "meta_epoch": "2025-12-05T10:54:52.087392",
        "meta_mean_motion": 2.1310119,
        "meta_eccentricity": 0.00044378,
        "meta_inclination": 64.3147,
        "meta_ra_of_asc_node": 198.4493,
        "meta_arg_of_pericenter": 70.9033,
        "meta_mean_anomaly": 82.6626,
        "meta_ephemeris_type": 0,
        "meta_classification_type": "U",
        "meta_norad_cat_id": 32393,
        "meta_element_set_no": 999,
        "meta_rev_at_epoch": 13964,
        "meta_bstar": 0,
        "meta_mean_motion_dot": 8.7e-07,
        "meta_mean_motion_ddot": 0,
        "tle_line1": "1 32393U 07065A   25339.45476953  .00000087  00000+0  00000+0 0  9996",
        "tle_line2": "2 32393  64.3147 198.4493 0004437  70.9033  82.6626  2.13101190139646"
      },
      "geometry": {
        "type": "Point",
        "coordinates": [
          26.72581823830904,
          -16.796618473419525
        ]
      }
    },
    {
      "type": "Feature",
      "properties": {
        "norad_id": 32395,
        "name": "COSMOS 2436 (723)",
        "group": "glo-ops",
        "lat": -25.392833909257785,
        "lon": -174.75918408083405,
        "alt_km": 19097.745545625854,
        "timestamp": "2025-12-07T20:38:14.324959+00:00",
        "meta_object_name": "COSMOS 2436 (723)",
        "meta_object_id": "2007-065C",
        "meta_epoch": "2025-12-07T03:33:41.330592",
        "meta_mean_motion": 2.13100006,
        "meta_eccentricity": 0.00177394,
        "meta_inclination": 64.3236,
        "meta_ra_of_asc_node": 198.4623,
        "meta_arg_of_pericenter": 9.1382,
        "meta_mean_anomaly": 136.8175,
        "meta_ephemeris_type": 0,
        "meta_classification_type": "U",
        "meta_norad_cat_id": 32395,
        "meta_element_set_no": 999,
        "meta_rev_at_epoch": 13963,
        "meta_bstar": 0,
        "meta_mean_motion_dot": 6.2e-07,
        "meta_mean_motion_ddot": 0,
        "tle_line1": "1 32395U 07065C   25341.14839503  .00000062  00000+0  00000+0 0  9994",
        "tle_line2": "2 32395  64.3236 198.4623 0017739   9.1382 136.8175  2.13100006139637"
      },
      "geometry": {
        "type": "Point",
        "coordinates": [
          -174.75918408083405,
          -25.392833909257785
        ]
      }
    },
    {
      "type": "Feature",
      "properties": {
        "norad_id": 36111,
        "name": "COSMOS 2456 (730)",
        "group": "glo-ops",
        "lat": -3.8491001009772283,
        "lon": 75.7074881187959,
        "alt_km": 19126.76874915583,
        "timestamp": "2025-12-07T20:38:14.324971+00:00",
        "meta_object_name": "COSMOS 2456 (730)",
        "meta_object_id": "2009-070A",
        "meta_epoch": "2025-12-06T21:12:24.583968",
        "meta_mean_motion": 2.13103425,
        "meta_eccentricity": 0.00030121,
        "meta_inclination": 64.8968,
        "meta_ra_of_asc_node": 77.5382,
        "meta_arg_of_pericenter": 297.7159,
        "meta_mean_anomaly": 29.056,
        "meta_ephemeris_type": 0,
        "meta_classification_type": "U",
        "meta_norad_cat_id": 36111,
        "meta_element_set_no": 999,
        "meta_rev_at_epoch": 12432,
        "meta_bstar": 0,
        "meta_mean_motion_dot": -1.7e-07,
        "meta_mean_motion_ddot": 0,
        "tle_line1": "1 36111U 09070A   25340.88361787 -.00000017  00000+0  00000+0 0  9997",
        "tle_line2": "2 36111  64.8968  77.5382 0003012 297.7159  29.0560  2.13103425124328"
      },
      "geometry": {
        "type": "Point",
        "coordinates": [
          75.7074881187959,
          -3.8491001009772283
        ]
      }
    },
    {
      "type": "Feature",
      "properties": {
        "norad_id": 36112,
        "name": "COSMOS 2457 (733)",
        "group": "glo-ops",
        "lat": 47.94402882695214,
        "lon": -133.9132600434312,
        "alt_km": 19114.323364128544,
        "timestamp": "2025-12-07T20:38:14.324983+00:00",
        "meta_object_name": "COSMOS 2457 (733)",
        "meta_object_id": "2009-070B",
        "meta_epoch": "2025-12-07T05:33:13.940640",
        "meta_mean_motion": 2.13100799,
        "meta_eccentricity": 0.00047672,
        "meta_inclination": 64.8824,
        "meta_ra_of_asc_node": 77.374,
        "meta_arg_of_pericenter": 157.9691,
        "meta_mean_anomaly": 204.8145,
        "meta_ephemeris_type": 0,
        "meta_classification_type": "U",
        "meta_norad_cat_id": 36112,
        "meta_element_set_no": 999,
        "meta_rev_at_epoch": 12434,
        "meta_bstar": 0,
        "meta_mean_motion_dot": -1.6e-07,
        "meta_mean_motion_ddot": 0,
        "tle_line1": "1 36112U 09070B   25341.23141135 -.00000016  00000+0  00000+0 0  9990",
        "tle_line2": "2 36112  64.8824  77.3740 0004767 157.9691 204.8145  2.13100799124347"
      },
      "geometry": {
        "type": "Point",
        "coordinates": [
          -133.9132600434312,
          47.94402882695214
        ]
      }
    },
    {
      "type": "Feature",
      "properties": {
        "norad_id": 36402,
        "name": "COSMOS 2460 (732)",
        "group": "glo-ops",
        "lat": 48.69994852911106,
        "lon": 109.71284693277694,
        "alt_km": 19129.981649200592,
        "timestamp": "2025-12-07T20:38:14.324995+00:00",
        "meta_object_name": "COSMOS 2460 (732)",
        "meta_object_id": "2010-007C",
        "meta_epoch": "2025-12-05T09:49:39.891072",
        "meta_mean_motion": 2.13106027,
        "meta_eccentricity": 0.00027397,
        "meta_inclination": 65.5337,
        "meta_ra_of_asc_node": 321.021,
        "meta_arg_of_pericenter": 272.5603,
        "meta_mean_anomaly": 131.8824,
        "meta_ephemeris_type": 0,
        "meta_classification_type": "U",
        "meta_norad_cat_id": 36402,
        "meta_element_set_no": 999,
        "meta_rev_at_epoch": 12260,
        "meta_bstar": 0,
        "meta_mean_motion_dot": -4.8e-07,
        "meta_mean_motion_ddot": 0,
        "tle_line1": "1 36402U 10007C   25339.40948948 -.00000048  00000+0  00000+0 0  9992",
        "tle_line2": "2 36402  65.5337 321.0210 0002739 272.5603 131.8824  2.13106027122601"
      },
      "geometry": {
        "type": "Point",
        "coordinates": [
          109.71284693277694,
          48.69994852911106
        ]
      }
    }
  ]
}